0 COSMOS 1375 DEB
1 17796U 82055AN  13282.28755770  .00000490  00000-0  37765-3 0  8642
2 17796 065.8245 209.3329 0039834 164.1771 356.8354 14.01563533 80984
0 COSMOS 1375 DEB
1 17796U 82055AN  13283.84624513  .00000531  00000-0  40454-3 0  8651
2 17796 065.8246 205.3050 0039714 163.2071 301.5615 14.01564717 81200
0 COSMOS 1375 DEB
1 17796U 82055AN  13286.83444950  .00000721  00000-0  52935-3 0  8678
2 17796 065.8245 197.5832 0039489 161.3751 259.2541 14.01567002 81625
0 COSMOS 1375 DEB
1 17796U 82055AN  13287.84408127  .00000869  00000-0  62640-3 0  8684
2 17796 065.8243 194.9743 0039421 160.7672 313.5812 14.01570030 81761
0 COSMOS 1375 DEB
1 17796U 82055AN  13289.12888414  .00000654  00000-0  48563-3 0  8699
2 17796 065.8242 191.6544 0039316 159.9783 316.3754 14.01573252 81944
0 COSMOS 1375 DEB
1 17796U 82055AN  13290.13445944  .00000595  00000-0  44667-3 0  8706
2 17796 065.8240 189.0558 0039238 159.3803 350.2481 14.01574740 82081
0 COSMOS 1375 DEB
1 17796U 82055AN  13292.13294641  .00000706  00000-0  51973-3 0  8717
2 17796 065.8237 183.8914 0039110 158.1537 354.1607 14.01576618 82365
0 COSMOS 1375 DEB
1 17796U 82055AN  13293.47011689  .00000782  00000-0  56956-3 0  8725
2 17796 065.8236 180.4358 0039023 157.3309 261.2319 14.01578205 82553
0 COSMOS 1375 DEB
1 17796U 82055AN  13294.83877603  .00000795  00000-0  57778-3 0  8730
2 17796 065.8235 176.8988 0038946 156.4466 327.2352 14.01580706 82747
0 COSMOS 1375 DEB
1 17796U 82055AN  13296.05025933  .00000709  00000-0  52167-3 0  8740
2 17796 065.8235 173.7681 0038847 155.7302 320.0965 14.01583420 82910
